OBJECT_NAME,OBJECT_ID,EPOCH,MEAN_MOTION,ECCENTRICITY,INCLINATION,RA_OF_ASC_NODE,ARG_OF_PERICENTER,MEAN_ANOMALY,EPHEMERIS_TYPE,CLASSIFICATION_TYPE,NORAD_CAT_ID,ELEMENT_SET_NO,REV_AT_EPOCH,BSTAR,MEAN_MOTION_DOT,MEAN_MOTION_DDOT
ONEWEB-0401,2021-132N,2026-06-10T05:24:32.660064,13.18684095,.0001695,87.9169,336.8269,84.9650,275.1675,0,U,50481,999,22069,.21254E-3,.97E-6,0
ONEWEB-0402,2021-132P,2026-06-10T11:48:11.645280,13.18685581,.0001644,87.9167,336.7632,76.1091,284.0224,0,U,50482,999,22075,.14114E-4,.18E-6,0
ONEWEB-0403,2021-132Q,2026-06-10T12:24:35.762976,13.18684791,.0001999,87.9169,336.7826,90.4303,269.7058,0,U,50483,999,22071,.11189E-3,.57E-6,0
ONEWEB-0404,2021-132R,2026-06-10T03:49:50.494944,13.11415017,.0002137,87.8894,22.4660,84.4554,275.6817,0,U,50484,999,21477,.12356E-3,.56E-6,0
ONEWEB-0405,2021-132S,2026-06-10T05:26:59.413920,13.18686074,.0001902,87.9170,336.8246,105.5185,254.6157,0,U,50485,999,22107,.47793E-4,.32E-6,0
ONEWEB-0406,2021-132T,2026-06-10T12:31:53.061024,13.18685081,.0002398,87.9163,336.7827,88.9719,271.1688,0,U,50486,999,22074,.19304E-3,.89E-6,0
ONEWEB-0407,2021-132U,2026-06-10T12:22:10.856352,13.18684971,.000163,87.9168,336.7759,92.3002,267.8317,0,U,50487,999,22068,.19461E-3,.9E-6,0
ONEWEB-0409,2021-132V,2026-06-10T03:47:23.613216,13.11415884,.0002086,87.8898,22.4541,87.2949,272.8417,0,U,50488,999,21466,.41275E-3,.159E-5,0
ONEWEB-0412,2021-132W,2026-06-10T12:05:10.151808,13.18684794,.0001714,87.9165,336.7865,82.1492,277.9834,0,U,50489,999,22077,.15141E-3,.73E-6,0
ONEWEB-0413,2021-132X,2026-06-10T12:12:27.849024,13.18683760,.0001559,87.9157,336.7847,85.4978,274.6333,0,U,50490,999,22071,.94766E-3,.387E-5,0
ONEWEB-0414,2021-132Y,2026-06-10T11:50:36.627072,13.18685298,.0001862,87.9167,336.7691,85.7110,274.4235,0,U,50491,999,22074,.6169E-4,.37E-6,0
ONEWEB-0417,2021-132Z,2026-06-10T12:02:44.935008,13.18685255,.000208,87.9159,336.7875,91.4941,268.6429,0,U,50492,999,22072,.14438E-3,.7E-6,0
ONEWEB-0418,2021-132AA,2026-06-10T05:00:05.048928,13.18684534,.0002143,87.9168,336.8453,92.4387,267.6990,0,U,50493,999,22074,-.80352E-4,-.19E-6,0
ONEWEB-0419,2021-132AB,2026-06-10T12:43:45.424704,13.18665341,.0002068,87.9168,336.7807,97.3504,262.7863,0,U,50494,999,22070,.10993E-3,.56E-6,0
ONEWEB-0420,2021-132AC,2026-06-10T11:53:02.095296,13.18685731,.0001634,87.9157,336.7910,92.6681,267.4638,0,U,50495,999,22069,.46773E-4,.31E-6,0
ONEWEB-0421,2021-132AD,2026-06-10T11:43:19.028352,13.18684797,.0001892,87.9163,336.7898,79.3825,280.7520,0,U,50496,999,22073,.93801E-4,.5E-6,0
ONEWEB-0424,2021-132AE,2026-06-10T12:36:44.432064,13.18685062,.0002005,87.9166,336.7804,101.5579,258.5778,0,U,50497,999,22076,.22993E-3,.104E-5,0
ONEWEB-0426,2021-132AF,2026-06-10T11:37:15.402720,13.18688711,.0002391,87.9166,336.7795,79.5239,280.6163,0,U,50498,999,22070,.15392E-3,.74E-6,0
ONEWEB-0427,2021-132AG,2026-06-10T12:34:18.798816,13.18684697,.0002069,87.9168,336.7604,90.4967,269.6402,0,U,50499,999,22073,.19179E-3,.89E-6,0
ONEWEB-0429,2021-132AH,2026-06-10T12:14:53.464992,13.18685568,.0001727,87.9161,336.7881,91.5283,268.6047,0,U,50500,999,22070,.1734E-3,.81E-6,0
ONEWEB-0430,2021-132AJ,2026-06-10T11:57:53.521632,13.18686079,.0001722,87.9161,336.7886,98.9429,261.1898,0,U,50501,999,22074,.8156E-4,.45E-6,0
ONEWEB-0432,2021-132AK,2026-06-10T12:00:02.000160,13.17165258,.000207,87.9178,336.7603,111.1444,87.4299,0,U,50502,999,509,-.69658E-2,-.2672E-4,0
ONEWEB-0440,2021-132AL,2026-06-10T12:27:01.503360,13.18685134,.000165,87.9170,336.7803,82.8042,277.3278,0,U,50503,999,22069,.21317E-3,.97E-6,0
ONEWEB-0450,2021-132AM,2026-06-09T23:32:41.329824,13.18685437,.00016565,87.9156,336.8933,93.3933,266.7389,0,U,50504,999,22065,.12858673E-3,.64E-6,0
ONEWEB-0410,2022-012A,2026-06-10T01:54:09.512064,13.17647907,.0003162,87.9146,7.2706,80.7151,279.4338,0,U,51622,999,21276,-.15588E-4,.7E-7,0
ONEWEB-0411,2022-012B,2026-06-10T05:12:42.948000,13.10371318,.0001533,87.8845,37.6545,98.5411,261.5890,0,U,51623,999,20837,-.15566E-2,-.531E-5,0
ONEWEB-0415,2022-012C,2026-06-10T08:47:51.334368,13.10370311,.000177,87.8839,37.6241,90.1982,269.9348,0,U,51624,999,20839,-.15164E-2,-.517E-5,0
ONEWEB-0416,2022-012D,2026-06-10T09:04:35.558976,13.10373238,.0001971,87.8837,37.6402,94.6425,265.4927,0,U,51625,999,20843,-.18877E-2,-.646E-5,0
ONEWEB-0422,2022-012E,2026-06-10T07:36:47.477088,13.17648171,.0001274,87.9144,7.2247,77.1040,283.0234,0,U,51626,999,21290,.11363E-3,.57E-6,0
ONEWEB-0423,2022-012F,2026-06-09T20:30:59.491008,13.17649468,.00019318,87.9140,7.3225,83.6909,276.4443,0,U,51627,999,21273,.10852468E-3,.55E-6,0
ONEWEB-0425,2022-012G,2026-06-10T03:49:04.963008,13.10376028,.000212,87.8843,37.6670,78.1360,282.0005,0,U,51628,999,20840,-.7398E-3,-.246E-5,0
