ONEWEB-0401             
1 50481U 21132N   26161.22537801  .00000097  00000+0  21254-3 0  9993
2 50481  87.9169 336.8269 0001695  84.9650 275.1675 13.18684095220697
ONEWEB-0402             
1 50482U 21132P   26161.49180145  .00000018  00000+0  14114-4 0  9999
2 50482  87.9167 336.7632 0001644  76.1091 284.0224 13.18685581220752
ONEWEB-0403             
1 50483U 21132Q   26161.51708059  .00000057  00000+0  11189-3 0  9994
2 50483  87.9169 336.7826 0001999  90.4303 269.7058 13.18684791220711
ONEWEB-0404             
1 50484U 21132R   26161.15961221  .00000056  00000+0  12356-3 0  9993
2 50484  87.8894  22.4660 0002137  84.4554 275.6817 13.11415017214771
ONEWEB-0405             
1 50485U 21132S   26161.22707655  .00000032  00000+0  47793-4 0  9999
2 50485  87.9170 336.8246 0001902 105.5185 254.6157 13.18686074221071
ONEWEB-0406             
1 50486U 21132T   26161.52214191  .00000089  00000+0  19304-3 0  9999
2 50486  87.9163 336.7827 0002398  88.9719 271.1688 13.18685081220748
ONEWEB-0407             
1 50487U 21132U   26161.51540343  .00000090  00000+0  19461-3 0  9996
2 50487  87.9168 336.7759 0001630  92.3002 267.8317 13.18684971220681
ONEWEB-0409             
1 50488U 21132V   26161.15791219  .00000159  00000+0  41275-3 0  9991
2 50488  87.8898  22.4541 0002086  87.2949 272.8417 13.11415884214664
ONEWEB-0412             
1 50489U 21132W   26161.50358972  .00000073  00000+0  15141-3 0  9994
2 50489  87.9165 336.7865 0001714  82.1492 277.9834 13.18684794220770
ONEWEB-0413             
1 50490U 21132X   26161.50865566  .00000387  00000+0  94766-3 0  9996
2 50490  87.9157 336.7847 0001559  85.4978 274.6333 13.18683760220719
ONEWEB-0414             
1 50491U 21132Y   26161.49347948  .00000037  00000+0  61690-4 0  9997
2 50491  87.9167 336.7691 0001862  85.7110 274.4235 13.18685298220746
ONEWEB-0417             
1 50492U 21132Z   26161.50190897  .00000070  00000+0  14438-3 0  9993
2 50492  87.9159 336.7875 0002080  91.4941 268.6429 13.18685255220722
ONEWEB-0418             
1 50493U 21132AA  26161.20839177 -.00000019  00000+0 -80352-4 0  9996
2 50493  87.9168 336.8453 0002143  92.4387 267.6990 13.18684534220744
ONEWEB-0419             
1 50494U 21132AB  26161.53038686  .00000056  00000+0  10993-3 0  9991
2 50494  87.9168 336.7807 0002068  97.3504 262.7863 13.18665341220704
ONEWEB-0420             
1 50495U 21132AC  26161.49516314  .00000031  00000+0  46773-4 0  9995
2 50495  87.9157 336.7910 0001634  92.6681 267.4638 13.18685731220695
ONEWEB-0421             
1 50496U 21132AD  26161.48841468  .00000050  00000+0  93801-4 0  9991
2 50496  87.9163 336.7898 0001892  79.3825 280.7520 13.18684797220730
ONEWEB-0424             
1 50497U 21132AE  26161.52551426  .00000104  00000+0  22993-3 0  9992
2 50497  87.9166 336.7804 0002005 101.5579 258.5778 13.18685062220769
ONEWEB-0426             
1 50498U 21132AF  26161.48420605  .00000074  00000+0  15392-3 0  9993
2 50498  87.9166 336.7795 0002391  79.5239 280.6163 13.18688711220706
ONEWEB-0427             
1 50499U 21132AG  26161.52382869  .00000089  00000+0  19179-3 0  9991
2 50499  87.9168 336.7604 0002069  90.4967 269.6402 13.18684697220735
ONEWEB-0429             
1 50500U 21132AH  26161.51034103  .00000081  00000+0  17340-3 0  9998
2 50500  87.9161 336.7881 0001727  91.5283 268.6047 13.18685568220700
ONEWEB-0430             
1 50501U 21132AJ  26161.49853613  .00000045  00000+0  81560-4 0  9997
2 50501  87.9161 336.7886 0001722  98.9429 261.1898 13.18686079220748
ONEWEB-0432             
1 50502U 21132AK  26161.50002315 -.00002672  00000+0 -69658-2 0  9997
2 50502  87.9178 336.7603 0002070 111.1444  87.4299 13.17165258  5099
ONEWEB-0440             
1 50503U 21132AL  26161.51876740  .00000097  00000+0  21317-3 0  9998
2 50503  87.9170 336.7803 0001650  82.8042 277.3278 13.18685134220698
ONEWEB-0450             
1 50504U 21132AM  26160.98103391  .00000064  00000+0  12859-3 0  9999
2 50504  87.9156 336.8933 0001656  93.3933 266.7389 13.18685437220657
ONEWEB-0410             
1 51622U 22012A   26161.07927676  .00000007  00000+0 -15588-4 0  9991
2 51622  87.9146   7.2706 0003162  80.7151 279.4338 13.17647907212768
ONEWEB-0411             
1 51623U 22012B   26161.21716375 -.00000531  00000+0 -15566-2 0  9997
2 51623  87.8845  37.6545 0001533  98.5411 261.5890 13.10371318208378
ONEWEB-0415             
1 51624U 22012C   26161.36656637 -.00000517  00000+0 -15164-2 0  9996
2 51624  87.8839  37.6241 0001770  90.1982 269.9348 13.10370311208393
ONEWEB-0416             
1 51625U 22012D   26161.37818934 -.00000646  00000+0 -18877-2 0  9995
2 51625  87.8837  37.6402 0001971  94.6425 265.4927 13.10373238208435
ONEWEB-0422             
1 51626U 22012E   26161.31721617  .00000057  00000+0  11363-3 0  9999
2 51626  87.9144   7.2247 0001274  77.1040 283.0234 13.17648171212905
ONEWEB-0423             
1 51627U 22012F   26160.85485522  .00000055  00000+0  10852-3 0  9990
2 51627  87.9140   7.3225 0001931  83.6909 276.4443 13.17649468212734
ONEWEB-0425             
1 51628U 22012G   26161.15908522 -.00000246  00000+0 -73980-3 0  9990
2 51628  87.8843  37.6670 0002120  78.1360 282.0005 13.10376028208403
